EUTELSAT 10A            
1 34710U 09016A   21205.52633903  .00000052  00000-0  00000-0 0  9999
2 34710   0.0632   9.4733 0005358 114.2279  18.2216  1.00270826 23327
WGS F2 (USA 204)        
1 34713U 09017A   21205.39216999  .00000053  00000-0  00000-0 0  9991
2 34713   0.0340  90.7428 0000158   3.6886  46.5465  1.00269331 27680
SES-7 (PROTOSTAR 2)     
1 34941U 09027A   21205.57132672 -.00000361  00000-0  00000-0 0  9993
2 34941   0.0145  44.5930 0000297 136.8449  74.9753  1.00270898 44683
MEASAT-3A               
1 35362U 09032A   21205.57688368 -.00000257  00000-0  00000-0 0  9999
2 35362   0.0195 198.5419 0002599 329.5122  73.6499  1.00269572 44314
GOES 14                 
1 35491U 09033A   21205.52225753 -.00000109  00000-0  00000-0 0  9999
2 35491   0.3938 105.5575 0011422 101.6987 178.9594  1.00271013 44182
FM-5                    
1 35493U 09034A   21205.50714711 -.00000216  00000-0  00000-0 0  9996
2 35493   0.0182 342.0513 0000673  68.6472 348.1569  1.00273693 28719
TERRESTAR-1             
1 35496U 09035A   21205.50217465 -.00000072  00000-0  00000-0 0  9994
2 35496   2.8076  30.5213 0002645  97.8302 243.8531  1.00272524 44199
ASIASAT 5               
1 35696U 09042A   21205.57618925 -.00000323  00000-0  00000-0 0  9996
2 35696   0.0204  79.8111 0001401  17.2965 153.3368  1.00271434 43750
JCSAT-RA (JCSAT-12)     
1 35755U 09044A   21205.57688448 -.00000047  00000-0  00000-0 0  9994
2 35755   0.0583 250.9515 0002600 234.8693 193.2526  1.00271623 43673
OPTUS D3                
1 35756U 09044B   21205.48359340 -.00000163  00000-0  00000-0 0  9990
2 35756   0.0322 358.1979 0003164 109.9221 164.3785  1.00271861 43620
NIMIQ 5                 
1 35873U 09050A   21205.50976420 -.00000272  00000-0  00000-0 0  9995
2 35873   0.0403 252.5791 0003408 251.5266 269.1315  1.00270305 43415
AMAZONAS 2              
1 35942U 09054A   21205.51211956 -.00000298  00000-0  00000-0 0  9991
2 35942   0.0250 145.8216 0005245 346.3388 293.6394  1.00272790 43247
COMSATBW-1              
1 35943U 09054B   21205.54719625  .00000009  00000-0  00000-0 0  9990
2 35943   0.0260  71.3866 0003847  53.5866  77.4846  1.00271298 43373
NSS-12                  
1 36032U 09058A   21205.53567326  .00000056  00000-0  00000-0 0  9994
2 36032   0.0507 275.4226 0003134 213.5922  63.2780  1.00271031 42985
THOR 6                  
1 36033U 09058B   21205.38056760 -.00000026  00000-0  00000-0 0  9991
2 36033   0.0225  99.9127 0002413  47.0385 291.5138  1.00270700 43069
INTELSAT 14 (IS-14)     
1 36097U 09064A   21205.44355212 -.00000289  00000-0  00000-0 0  9990
2 36097   0.0158  28.3769 0002772  90.6914 297.9998  1.00271872 42673
EUTELSAT 36B            
1 36101U 09065A   21205.53148594  .00000139  00000-0  00000-0 0  9993
2 36101   0.0644  10.1545 0004814 111.5871  47.9444  1.00268928 42783
INTELSAT 15 (IS-15)     
1 36106U 09067A   21205.46954843 -.00000201  00000-0  00000-0 0  9995
2 36106   0.0134  69.1059 0002620  58.4043  69.0709  1.00271733 23291
WGS F3 (USA 211)        
1 36108U 09068A   21205.35640324  .00000004  00000-0  00000-0 0  9992
2 36108   0.0840  96.7902 0000448 259.1500 312.7133  1.00268833 28677
DIRECTV 12              
1 36131U 09075A   21205.50383214 -.00000119  00000-0  00000-0 0  9993
2 36131   0.0342 230.8124 0000316 277.2204 233.0492  1.00270862 28626
BEIDOU 3                
1 36287U 10001A   21205.09063546 -.00000298  00000-0  00000-0 0  9991
2 36287   1.9268  47.7305 0005861  83.5816 343.7069  1.00268965 42220
RADUGA-1M 2             
1 36358U 10002A   21205.42601550 -.00000199  00000-0  00000-0 0  9991
2 36358   0.0801 249.5918 0003117 239.3226  51.7862  1.00271611 32163
SDO                     
1 36395U 10005A   21205.28955550 -.00000106  00000-0  00000-0 0  9999
2 36395  31.0326 114.5963 0000877 313.6962 236.0389  1.00269285 42127
INTELSAT 16 (IS-16)     
1 36397U 10006A   21205.51791955 -.00000260  00000-0  00000-0 0  9996
2 36397   0.0149  77.7503 0002346  47.0696 287.8738  1.00272246 41754
GOES 15                 
1 36411U 10008A   21205.49885969  .00000037  00000-0  00000-0 0  9992
2 36411   0.2064 118.3645 0005025 301.5283 294.4727  1.00261585 41740
ECHOSTAR 14             
1 36499U 10010A   21205.35701389 -.00000015  00000-0  00000-0 0  9996
2 36499   0.0201  72.6736 0002918  62.4363 176.8095  1.00269444 28625
SES-1                   
1 36516U 10016A   21205.50418109 -.00000130  00000-0  00000-0 0  9992
2 36516   0.0254 318.6694 0002981 156.0234 268.2283  1.00271149 41104
ASTRA 3B                
1 36581U 10021A   21205.52895610  .00000121  00000-0  00000-0 0  9997
2 36581   0.0393 340.1947 0003978 151.2294  24.9356  1.00269903 40945
COMSATBW-2              
1 36582U 10021B   21205.31157601  .00000073  00000-0  00000-0 0  9992
2 36582   0.0266  80.1477 0002860  56.6802 290.7599  1.00273703 41010
BADR-5                  
1 36592U 10025A   21205.52930505  .00000129  00000-0  00000-0 0  9994
2 36592   0.0395 110.8334 0005718  25.5452  22.5850  1.00271847 35288
COMS 1                  
1 36744U 10032A   21204.90387670 -.00000359  00000-0  00000-0 0  9997
2 36744   0.3023  95.3413 0001235  22.7015 277.3221  1.00274147 33148
ARABSAT-5A              
1 36745U 10032B   21205.53043911  .00000137  00000-0  00000-0 0  9998
2 36745   0.0511  30.1198 0004905 110.6841  23.1179  1.00268622 40717
ECHOSTAR 15             
1 36792U 10034A   21205.51203233 -.00000297  00000-0  00000-0 0  9993
2 36792   0.0169  94.1371 0002069   1.6314 329.3492  1.00270345 40392
BEIDOU 5                
1 36828U 10036A   21205.33452108 -.00000114  00000-0  00000-0 0  9990
2 36828  54.1822 179.2501 0114768 235.6401 123.5662  1.00248935 40285
NILESAT 201             
1 36830U 10037A   21205.37934630 -.00000073  00000-0  00000-0 0  9997
2 36830   0.0506 211.1035 0006311 266.1431 314.6044  1.00271860 40427
RASCOM-QAF 1R           
1 36831U 10037B   21205.38135273  .00000003  00000-0  00000-0 0  9997
2 36831   0.0112  81.3845 0004384  44.4665 316.6313  1.00271588 40351
AEHF-1 (USA 214)        
1 36868U 10039A   21205.38152720  .00000007  00000-0  00000-0 0  9999
2 36868   3.7150  91.3060 0007412  15.9139 336.3469  1.00273122 35718
CHINASAT 6A (ZX 6A)     
1 37150U 10042A   21205.11446993 -.00000369  00000-0  00000-0 0  9999
2 37150   0.0300 237.3250 0002056 201.1497  29.7988  1.00268136 39967
QZS-1 (MICHIBIKI-1)     
1 37158U 10045A   21203.68427431 -.00000201  00000-0  00000-0 0  9991
2 37158  41.9981 137.9701 0762373 270.8197 277.9146  1.00257785 39786
XM-5                    
1 37185U 10053A   21205.22023816 -.00000220  00000-0  00000-0 0  9992
2 37185   0.0119 105.4129 0001011 128.0683  62.8021  1.00271472 39544
BSAT-3B                 
1 37207U 10056B   21205.57132672 -.00000366  00000-0  00000-0 0  9990
2 37207   0.0780 299.7713 0000399  82.8195 235.4330  1.00272174 34201
BEIDOU 6                
1 37210U 10057A   21205.61475917 -.00000128  00000-0  00000-0 0  9998
2 37210   0.8996  51.4198 0005149 120.6699 151.7915  1.00271877 39348
SKYTERRA 1              
1 37218U 10061A   21205.50409385 -.00000133  00000-0  00000-0 0  9991
2 37218   2.1728  18.9354 0001717 115.9605 247.6805  1.00271637 39265
ZHONGXING-20A           
1 37234U 10064A   21205.60604822 -.00000368  00000-0  00000-0 0  9996
2 37234   1.8343  92.3555 0003056  37.3478 157.3575  1.00274762 39098
HYLAS 1                 
1 37237U 10065A   21205.56507819 -.00000139  00000-0  00000-0 0  9999
2 37237   1.1000  93.6205 0002263  25.3604 185.7000  1.00270979 39046
INTELSAT 17 (IS-17)     
1 37238U 10065B   21205.48104917 -.00000018  00000-0  00000-0 0  9999
2 37238   0.0179 188.4985 0002461 297.6989  55.3827  1.00272586 35311
BEIDOU 7                
1 37256U 10068A   21204.65450324 -.00000213  00000-0  00000-0 0  9993
2 37256  50.7920 293.5653 0091382 217.7653 141.6521  1.00302725 38859
EUTELSAT KA-SAT 9A      
1 37258U 10069A   21205.31079087  .00000046  00000-0  00000-0 0  9996
2 37258   0.0874 268.8487 0006112 211.8955 302.3777  1.00271116 26062
HISPASAT 30W-5          
1 37264U 10070A   21205.44651814 -.00000232  00000-0  00000-0 0  9991
2 37264   0.0293 110.7709 0006388  21.6764 300.6580  1.00270340 35247
KOREASAT 6              
1 37265U 10070B   21205.56577233 -.00000378  00000-0  00000-0 0  9998
2 37265   0.0121  67.5167 0001998  46.4983 148.1549  1.00271210 38830
BEIDOU 8                
1 37384U 11013A   21205.41717566 -.00000192  00000-0  00000-0 0  9991
2 37384  59.8252  57.5268 0054051 207.2237 304.8495  1.00295897 37733
INTELSAT NEW DAWN       
1 37392U 11016A   21205.53087529  .00000140  00000-0  00000-0 0  9997
2 37392   0.0123 110.3005 0001990  28.5940  27.4781  1.00273083 35358
YAHSAT 1A               
1 37393U 11016B   21205.53480090  .00000085  00000-0  00000-0 0  9996
2 37393   0.0283  76.3549 0002355  31.9022  79.2513  1.00270676 24468
SBIRS GEO-1 (USA 230)   
1 37481U 11019A   21205.48104917 -.00000024  00000-0  00000-0 0  9996
2 37481   1.8071   4.4637 0002106 118.4604  58.8611  1.00272221 37465
TELSTAR 14R             
1 37602U 11021A   21205.51177061 -.00000295  00000-0  00000-0 0  9998
2 37602   0.0512 289.2497 0002243 156.5928 337.8111  1.00269387 37882
GSAT-8                  
1 37605U 11022A   21205.53532432  .00000069  00000-0  00000-0 0  9999
2 37605   0.0481 248.9947 0001872  27.1412 274.0888  1.00271931 35283
ST-2                    
1 37606U 11022B   21205.57688368 -.00000227  00000-0  00000-0 0  9991
2 37606   0.0156  96.5946 0001572  41.7583  99.8329  1.00271398 37346
CHINASAT 10 (ZX 10)     
1 37677U 11026A   21205.54635677 -.00000368  00000-0  00000-0 0  9991
2 37677   0.0680 251.7375 0004697 268.7111  89.2407  1.00271597 37066
TIANLIAN 1-02           
1 37737U 11032A   21205.59979833 -.00000034  00000-0  00000-0 0  9995
2 37737   2.3975  74.6183 0018814  90.5574 164.2510  1.00269847 36786
